SENTINEL-6              
1 46984U 20086A   24246.21451354 -.00000052  00000+0  41186-4 0  9991
2 46984  66.0417  51.2825 0007761 269.3943  90.6183 12.80931272176812
